[{"OBJECT_NAME":"MESON-1","OBJECT_ID":"2024-043AK","EPOCH":"2026-03-09T21:36:16.481664","MEAN_MOTION":15.29893494,"ECCENTRICITY":0.00095452,"INCLINATION":97.5469,"RA_OF_ASC_NODE":205.2839,"ARG_OF_PERICENTER":227.1432,"MEAN_ANOMALY":132.9007,"EPHEMERIS_TYPE":0,"CLASSIFICATION_TYPE":"U","NORAD_CAT_ID":59131,"ELEMENT_SET_NO":999,"REV_AT_EPOCH":11189,"BSTAR":0.0002974823,"MEAN_MOTION_DOT":8.544e-5,"MEAN_MOTION_DDOT":0},{"OBJECT_NAME":"STARLINK-33578","OBJECT_ID":"2025-063F","EPOCH":"2026-03-09T22:35:34.359360","MEAN_MOTION":15.3018665,"ECCENTRICITY":0.00013078,"INCLINATION":53.1613,"RA_OF_ASC_NODE":48.7626,"ARG_OF_PERICENTER":100.5813,"MEAN_ANOMALY":259.5335,"EPHEMERIS_TYPE":0,"CLASSIFICATION_TYPE":"U","NORAD_CAT_ID":63368,"ELEMENT_SET_NO":999,"REV_AT_EPOCH":5477,"BSTAR":0.0009055418,"MEAN_MOTION_DOT":0.00026545,"MEAN_MOTION_DDOT":0}]
